[{"OBJECT_NAME":"IRIDIUM 122","OBJECT_ID":"2017-061C","EPOCH":"2026-03-09T22:07:58.507680","MEAN_MOTION":14.34217131,"ECCENTRICITY":0.00019893,"INCLINATION":86.3911,"RA_OF_ASC_NODE":66.6833,"ARG_OF_PERICENTER":88.1776,"MEAN_ANOMALY":271.9648,"EPHEMERIS_TYPE":0,"CLASSIFICATION_TYPE":"U","NORAD_CAT_ID":42957,"ELEMENT_SET_NO":999,"REV_AT_EPOCH":44055,"BSTAR":-1.2173426e-5,"MEAN_MOTION_DOT":-1.4e-7,"MEAN_MOTION_DDOT":0},{"OBJECT_NAME":"METEOR 2-8 DEB","OBJECT_ID":"1982-025G","EPOCH":"2026-03-07T06:10:12.617472","MEAN_MOTION":14.37274749,"ECCENTRICITY":0.0019857,"INCLINATION":82.5134,"RA_OF_ASC_NODE":251.9137,"ARG_OF_PERICENTER":253.337,"MEAN_ANOMALY":106.564,"EPHEMERIS_TYPE":0,"CLASSIFICATION_TYPE":"U","NORAD_CAT_ID":36322,"ELEMENT_SET_NO":999,"REV_AT_EPOCH":64582,"BSTAR":0.0031791,"MEAN_MOTION_DOT":9.517e-5,"MEAN_MOTION_DDOT":0}]
